{"type": "FeatureCollection", "features": [ {"type": "Feature", "properties": {"norad_id": 64901, "name": "CO3D 4", "group": "resource", "lat": 31.89451967281527, "lon": 54.01298746341854, "alt_km": 504.1760687839842, "timestamp": "2025-12-08T05:48:08.705668+00:00", "meta": {"OBJECT_NAME": "CO3D 4", "OBJECT_ID": "2025-156C", "EPOCH": "2025-12-07T21:45:45.110304", "MEAN_MOTION": 15.20208834, "ECCENTRICITY": 0.00010895, "INCLINATION": 97.434, "RA_OF_ASC_NODE": 58.3436, "ARG_OF_PERICENTER": 223.8208, "MEAN_ANOMALY": 136.2941, "EPHEMERIS_TYPE": 0, "CLASSIFICATION_TYPE": "U", "NORAD_CAT_ID": 64901, "ELEMENT_SET_NO": 999, "REV_AT_EPOCH": 2047, "BSTAR": 0.00041456242, "MEAN_MOTION_DOT": 8.919e-05, "MEAN_MOTION_DDOT": 0}, "tle": {"line1": "1 64901U 25156C   25341.90677211  .00008919  00000+0  41456-3 0  9996", "line2": "2 64901  97.4340  58.3436 0001089 223.8208 136.2941 15.20208834 20473"}}, "geometry": {"type": "Point", "coordinates": [54.01298746341854, 31.89451967281527]}}, {"type": "Feature", "properties": {"norad_id": 64902, "name": "CO3D 2", "group": "resource", "lat": -34.44518805991564, "lon": -126.56588463328157, "alt_km": 511.8541823394489, "timestamp": "2025-12-08T05:48:08.705678+00:00", "meta": {"OBJECT_NAME": "CO3D 2", "OBJECT_ID": "2025-156D", "EPOCH": "2025-12-07T22:32:31.363296", "MEAN_MOTION": 15.2020445, "ECCENTRICITY": 8.473e-05, "INCLINATION": 97.4343, "RA_OF_ASC_NODE": 58.2742, "ARG_OF_PERICENTER": 91.1566, "MEAN_ANOMALY": 268.9766, "EPHEMERIS_TYPE": 0, "CLASSIFICATION_TYPE": "U", "NORAD_CAT_ID": 64902, "ELEMENT_SET_NO": 999, "REV_AT_EPOCH": 2047, "BSTAR": 2.6258745e-05, "MEAN_MOTION_DOT": 5.01e-06, "MEAN_MOTION_DDOT": 0}, "tle": {"line1": "1 64902U 25156D   25341.93925189  .00000501  00000+0  26259-4 0  9994", "line2": "2 64902  97.4343  58.2742 0000847  91.1566 268.9766 15.20204450 20478"}}, "geometry": {"type": "Point", "coordinates": [-126.56588463328157, -34.44518805991564]}}, {"type": "Feature", "properties": {"norad_id": 64903, "name": "CO3D 1", "group": "resource", "lat": -33.664202053489966, "lon": -126.41670610470473, "alt_km": 511.6593274597926, "timestamp": "2025-12-08T05:48:08.705688+00:00", "meta": {"OBJECT_NAME": "CO3D 1", "OBJECT_ID": "2025-156E", "EPOCH": "2025-12-07T22:32:44.160864", "MEAN_MOTION": 15.20215352, "ECCENTRICITY": 9.975e-05, "INCLINATION": 97.4342, "RA_OF_ASC_NODE": 58.2743, "ARG_OF_PERICENTER": 105.5854, "MEAN_ANOMALY": 254.5491, "EPHEMERIS_TYPE": 0, "CLASSIFICATION_TYPE": "U", "NORAD_CAT_ID": 64903, "ELEMENT_SET_NO": 999, "REV_AT_EPOCH": 2047, "BSTAR": 0.00038652623, "MEAN_MOTION_DOT": 8.312e-05, "MEAN_MOTION_DDOT": 0}, "tle": {"line1": "1 64903U 25156E   25341.93940001  .00008312  00000+0  38653-3 0  9993", "line2": "2 64903  97.4342  58.2743 0000997 105.5854 254.5491 15.20215352 20474"}}, "geometry": {"type": "Point", "coordinates": [-126.41670610470473, -33.664202053489966]}}, {"type": "Feature", "properties": {"norad_id": 66514, "name": "SENTINEL-6B", "group": "resource", "lat": -32.14417437955007, "lon": 8.025589714294211, "alt_km": 1320.5779224726139, "timestamp": "2025-12-08T05:48:08.705698+00:00", "meta": {"OBJECT_NAME": "SENTINEL-6B", "OBJECT_ID": "2025-264A", "EPOCH": "2025-12-07T23:04:25.327200", "MEAN_MOTION": 12.84031938, "ECCENTRICITY": 0.0021041, "INCLINATION": 66.0386, "RA_OF_ASC_NODE": 172.3856, "ARG_OF_PERICENTER": 268.5107, "MEAN_ANOMALY": 91.35, "EPHEMERIS_TYPE": 0, "CLASSIFICATION_TYPE": "U", "NORAD_CAT_ID": 66514, "ELEMENT_SET_NO": 999, "REV_AT_EPOCH": 267, "BSTAR": 0.00011848474, "MEAN_MOTION_DOT": -3.3e-07, "MEAN_MOTION_DDOT": 0}, "tle": {"line1": "1 66514U 25264A   25341.96140425 -.00000033  00000+0  11848-3 0  9998", "line2": "2 66514  66.0386 172.3856 0021041 268.5107  91.3500 12.84031938  2674"}}, "geometry": {"type": "Point", "coordinates": [8.025589714294211, -32.14417437955007]}}]}